[{"OBJECT_NAME":"STARLINK-31781","OBJECT_ID":"2024-082B","EPOCH":"2026-03-09T12:11:44.990304","MEAN_MOTION":15.27570647,"ECCENTRICITY":6.447e-5,"INCLINATION":42.9992,"RA_OF_ASC_NODE":126.7217,"ARG_OF_PERICENTER":264.8592,"MEAN_ANOMALY":95.2186,"EPHEMERIS_TYPE":0,"CLASSIFICATION_TYPE":"U","NORAD_CAT_ID":59632,"ELEMENT_SET_NO":999,"REV_AT_EPOCH":10498,"BSTAR":-3.018274e-5,"MEAN_MOTION_DOT":-1.092e-5,"MEAN_MOTION_DDOT":0},{"OBJECT_NAME":"OBJECT A","OBJECT_ID":"2025-013A","EPOCH":"2026-03-09T23:29:31.895232","MEAN_MOTION":15.29260221,"ECCENTRICITY":0.0010321,"INCLINATION":97.6364,"RA_OF_ASC_NODE":244.5149,"ARG_OF_PERICENTER":282.3775,"MEAN_ANOMALY":77.6309,"EPHEMERIS_TYPE":0,"CLASSIFICATION_TYPE":"U","NORAD_CAT_ID":62729,"ELEMENT_SET_NO":999,"REV_AT_EPOCH":6276,"BSTAR":0.0013206527,"MEAN_MOTION_DOT":0.00037616,"MEAN_MOTION_DDOT":0}]
